{"type": "FeatureCollection", "features": [ {"type": "Feature", "properties": {"norad_id": 38552, "name": "METEOSAT-10 (MSG-3)", "group": "weather", "lat": -3.262288699019769, "lon": 10.990893852462834, "alt_km": 35784.99301806088, "timestamp": "2025-12-08T19:31:48.474432+00:00", "meta": {"OBJECT_NAME": "METEOSAT-10 (MSG-3)", "OBJECT_ID": "2012-035B", "EPOCH": "2025-12-08T01:37:13.932768", "MEAN_MOTION": 1.00273522, "ECCENTRICITY": 8.845e-05, "INCLINATION": 4.2178, "RA_OF_ASC_NODE": 61.7316, "ARG_OF_PERICENTER": 234.9391, "MEAN_ANOMALY": 164.8501, "EPHEMERIS_TYPE": 0, "CLASSIFICATION_TYPE": "U", "NORAD_CAT_ID": 38552, "ELEMENT_SET_NO": 999, "REV_AT_EPOCH": 4894, "BSTAR": 0, "MEAN_MOTION_DOT": -4e-08, "MEAN_MOTION_DDOT": 0}, "tle": {"line1": "1 38552U 12035B   25342.06752237 -.00000004  00000+0  00000+0 0  9995", "line2": "2 38552   4.2178  61.7316 0000884 234.9391 164.8501  1.00273522 48944"}}, "geometry": {"type": "Point", "coordinates": [10.990893852462834, -3.262288699019769]}}, {"type": "Feature", "properties": {"norad_id": 38771, "name": "METOP-B", "group": "weather", "lat": 10.132436649697354, "lon": -145.59656331928105, "alt_km": 820.230561836579, "timestamp": "2025-12-08T19:31:48.474442+00:00", "meta": {"OBJECT_NAME": "METOP-B", "OBJECT_ID": "2012-049A", "EPOCH": "2025-12-08T06:54:31.546368", "MEAN_MOTION": 14.21406045, "ECCENTRICITY": 0.00027281, "INCLINATION": 98.6805, "RA_OF_ASC_NODE": 32.322, "ARG_OF_PERICENTER": 153.9624, "MEAN_ANOMALY": 206.1691, "EPHEMERIS_TYPE": 0, "CLASSIFICATION_TYPE": "U", "NORAD_CAT_ID": 38771, "ELEMENT_SET_NO": 999, "REV_AT_EPOCH": 68614, "BSTAR": 0.0001519826, "MEAN_MOTION_DOT": 2.88e-06, "MEAN_MOTION_DDOT": 0}, "tle": {"line1": "1 38771U 12049A   25342.28786512  .00000288  00000+0  15198-3 0  9991", "line2": "2 38771  98.6805  32.3220 0002728 153.9624 206.1691 14.21406045686142"}}, "geometry": {"type": "Point", "coordinates": [-145.59656331928105, 10.132436649697354]}}, {"type": "Feature", "properties": {"norad_id": 39216, "name": "INSAT-3D", "group": "weather", "lat": 1.1880336792051063, "lon": 140.28216684783834, "alt_km": 35788.06485354838, "timestamp": "2025-12-08T19:31:48.474454+00:00", "meta": {"OBJECT_NAME": "INSAT-3D", "OBJECT_ID": "2013-038B", "EPOCH": "2025-12-08T07:22:20.554176", "MEAN_MOTION": 1.00271656, "ECCENTRICITY": 0.00017005, "INCLINATION": 1.4333, "RA_OF_ASC_NODE": 85.0358, "ARG_OF_PERICENTER": 161.501, "MEAN_ANOMALY": 70.9097, "EPHEMERIS_TYPE": 0, "CLASSIFICATION_TYPE": "U", "NORAD_CAT_ID": 39216, "ELEMENT_SET_NO": 999, "REV_AT_EPOCH": 4516, "BSTAR": 0, "MEAN_MOTION_DOT": -3.37e-06, "MEAN_MOTION_DDOT": 0}, "tle": {"line1": "1 39216U 13038B   25342.30718234 -.00000337  00000+0  00000+0 0  9992", "line2": "2 39216   1.4333  85.0358 0001700 161.5010  70.9097  1.00271656 45164"}}, "geometry": {"type": "Point", "coordinates": [140.28216684783834, 1.1880336792051063]}}, {"type": "Feature", "properties": {"norad_id": 39260, "name": "FENGYUN 3C", "group": "weather", "lat": 42.17158641626698, "lon": 148.44793064512015, "alt_km": 833.0911734103211, "timestamp": "2025-12-08T19:31:48.474464+00:00", "meta": {"OBJECT_NAME": "FENGYUN 3C", "OBJECT_ID": "2013-052A", "EPOCH": "2025-12-08T05:18:48.099456", "MEAN_MOTION": 14.15694244, "ECCENTRICITY": 0.00140352, "INCLINATION": 98.476, "RA_OF_ASC_NODE": 320.1215, "ARG_OF_PERICENTER": 209.4658, "MEAN_ANOMALY": 150.5727, "EPHEMERIS_TYPE": 0, "CLASSIFICATION_TYPE": "U", "NORAD_CAT_ID": 39260, "ELEMENT_SET_NO": 999, "REV_AT_EPOCH": 63154, "BSTAR": 0.00013382439, "MEAN_MOTION_DOT": 2.21e-06, "MEAN_MOTION_DDOT": 0}, "tle": {"line1": "1 39260U 13052A   25342.22139004  .00000221  00000+0  13382-3 0  9992", "line2": "2 39260  98.4760 320.1215 0014035 209.4658 150.5727 14.15694244631543"}}, "geometry": {"type": "Point", "coordinates": [148.44793064512015, 42.17158641626698]}}, {"type": "Feature", "properties": {"norad_id": 40069, "name": "METEOR-M 2", "group": "weather", "lat": 37.76640263316507, "lon": -46.09617824728713, "alt_km": 821.3614032787691, "timestamp": "2025-12-08T19:31:48.474473+00:00", "meta": {"OBJECT_NAME": "METEOR-M 2", "OBJECT_ID": "2014-037A", "EPOCH": "2025-12-08T05:50:05.737344", "MEAN_MOTION": 14.21383936, "ECCENTRICITY": 0.00048594, "INCLINATION": 98.4898, "RA_OF_ASC_NODE": 320.0002, "ARG_OF_PERICENTER": 223.9667, "MEAN_ANOMALY": 136.1125, "EPHEMERIS_TYPE": 0, "CLASSIFICATION_TYPE": "U", "NORAD_CAT_ID": 40069, "ELEMENT_SET_NO": 999, "REV_AT_EPOCH": 59219, "BSTAR": 0.00015747117, "MEAN_MOTION_DOT": 3.02e-06, "MEAN_MOTION_DDOT": 0}, "tle": {"line1": "1 40069U 14037A   25342.24312196  .00000302  00000+0  15747-3 0  9999", "line2": "2 40069  98.4898 320.0002 0004859 223.9667 136.1125 14.21383936592190"}}, "geometry": {"type": "Point", "coordinates": [-46.09617824728713, 37.76640263316507]}}, {"type": "Feature", "properties": {"norad_id": 40267, "name": "HIMAWARI-8", "group": "weather", "lat": 0.02621674002038926, "lon": 151.41056672445637, "alt_km": 35791.04672843137, "timestamp": "2025-12-08T19:31:48.474484+00:00", "meta": {"OBJECT_NAME": "HIMAWARI-8", "OBJECT_ID": "2014-060A", "EPOCH": "2025-12-07T22:51:34.164864", "MEAN_MOTION": 1.00269403, "ECCENTRICITY": 0.00013437, "INCLINATION": 0.0504, "RA_OF_ASC_NODE": 135.4496, "ARG_OF_PERICENTER": 154.0261, "MEAN_ANOMALY": 271.0486, "EPHEMERIS_TYPE": 0, "CLASSIFICATION_TYPE": "U", "NORAD_CAT_ID": 40267, "ELEMENT_SET_NO": 999, "REV_AT_EPOCH": 4084, "BSTAR": 0, "MEAN_MOTION_DOT": -2.73e-06, "MEAN_MOTION_DDOT": 0}, "tle": {"line1": "1 40267U 14060A   25341.95247876 -.00000273  00000+0  00000+0 0  9994", "line2": "2 40267   0.0504 135.4496 0001343 154.0261 271.0486  1.00269403 40841"}}, "geometry": {"type": "Point", "coordinates": [151.41056672445637, 0.02621674002038926]}}, {"type": "Feature", "properties": {"norad_id": 40367, "name": "FENGYUN 2G", "group": "weather", "lat": 2.99266470154121, "lon": 110.27040002887472, "alt_km": 35800.03434844257, "timestamp": "2025-12-08T19:31:48.474494+00:00", "meta": {"OBJECT_NAME": "FENGYUN 2G", "OBJECT_ID": "2014-090A", "EPOCH": "2025-12-07T19:14:37.154688", "MEAN_MOTION": 1.00265807, "ECCENTRICITY": 0.00031202, "INCLINATION": 5.1554, "RA_OF_ASC_NODE": 75.1544, "ARG_OF_PERICENTER": 196.9461, "MEAN_ANOMALY": 193.0185, "EPHEMERIS_TYPE": 0, "CLASSIFICATION_TYPE": "U", "NORAD_CAT_ID": 40367, "ELEMENT_SET_NO": 999, "REV_AT_EPOCH": 4008, "BSTAR": 0, "MEAN_MOTION_DOT": -3e-06, "MEAN_MOTION_DDOT": 0}, "tle": {"line1": "1 40367U 14090A   25341.80181892 -.00000300  00000+0  00000+0 0  9998", "line2": "2 40367   5.1554  75.1544 0003120 196.9461 193.0185  1.00265807 40088"}}, "geometry": {"type": "Point", "coordinates": [110.27040002887472, 2.99266470154121]}}, {"type": "Feature", "properties": {"norad_id": 40732, "name": "METEOSAT-11 (MSG-4)", "group": "weather", "lat": -2.132445549343129, "lon": 20.1524208057369, "alt_km": 35791.97754213575, "timestamp": "2025-12-08T19:31:48.474504+00:00", "meta": {"OBJECT_NAME": "METEOSAT-11 (MSG-4)", "OBJECT_ID": "2015-034A", "EPOCH": "2025-12-08T06:47:59.170272", "MEAN_MOTION": 1.00266103, "ECCENTRICITY": 9.754e-05, "INCLINATION": 2.7242, "RA_OF_ASC_NODE": 72.0144, "ARG_OF_PERICENTER": 120.6202, "MEAN_ANOMALY": 356.0214, "EPHEMERIS_TYPE": 0, "CLASSIFICATION_TYPE": "U", "NORAD_CAT_ID": 40732, "ELEMENT_SET_NO": 999, "REV_AT_EPOCH": 530, "BSTAR": 0, "MEAN_MOTION_DOT": 6.3e-07, "MEAN_MOTION_DDOT": 0}, "tle": {"line1": "1 40732U 15034A   25342.28332373  .00000063  00000+0  00000+0 0  9993", "line2": "2 40732   2.7242  72.0144 0000975 120.6202 356.0214  1.00266103  5305"}}, "geometry": {"type": "Point", "coordinates": [20.1524208057369, -2.132445549343129]}}, {"type": "Feature", "properties": {"norad_id": 41105, "name": "ELEKTRO-L 2", "group": "weather", "lat": -6.044788671407851, "lon": -3.615784266048501, "alt_km": 35784.316511093704, "timestamp": "2025-12-08T19:31:48.474515+00:00", "meta": {"OBJECT_NAME": "ELEKTRO-L 2", "OBJECT_ID": "2015-074A", "EPOCH": "2025-12-08T01:32:59.339616", "MEAN_MOTION": 1.00272095, "ECCENTRICITY": 0.00038959, "INCLINATION": 6.2137, "RA_OF_ASC_NODE": 72.8831, "ARG_OF_PERICENTER": 202.1976, "MEAN_ANOMALY": 170.7351, "EPHEMERIS_TYPE": 0, "CLASSIFICATION_TYPE": "U", "NORAD_CAT_ID": 41105, "ELEMENT_SET_NO": 999, "REV_AT_EPOCH": 3659, "BSTAR": 0, "MEAN_MOTION_DOT": -1.16e-06, "MEAN_MOTION_DDOT": 0}, "tle": {"line1": "1 41105U 15074A   25342.06457569 -.00000116  00000+0  00000+0 0  9993", "line2": "2 41105   6.2137  72.8831 0003895 202.1976 170.7351  1.00272095 36596"}}, "geometry": {"type": "Point", "coordinates": [-3.615784266048501, -6.044788671407851]}}, {"type": "Feature", "properties": {"norad_id": 41752, "name": "INSAT-3DR", "group": "weather", "lat": 0.019333299894645894, "lon": 84.78577947040714, "alt_km": 35847.89219013808, "timestamp": "2025-12-08T19:31:48.474525+00:00", "meta": {"OBJECT_NAME": "INSAT-3DR", "OBJECT_ID": "2016-054A", "EPOCH": "2025-12-08T03:41:02.076000", "MEAN_MOTION": 1.00270129, "ECCENTRICITY": 0.00145471, "INCLINATION": 0.0808, "RA_OF_ASC_NODE": 86.9634, "ARG_OF_PERICENTER": 183.03, "MEAN_ANOMALY": 296.4413, "EPHEMERIS_TYPE": 0, "CLASSIFICATION_TYPE": "U", "NORAD_CAT_ID": 41752, "ELEMENT_SET_NO": 999, "REV_AT_EPOCH": 3390, "BSTAR": 0, "MEAN_MOTION_DOT": -7.4e-07, "MEAN_MOTION_DDOT": 0}, "tle": {"line1": "1 41752U 16054A   25342.15349625 -.00000074  00000+0  00000+0 0  9996", "line2": "2 41752   0.0808  86.9634 0014547 183.0300 296.4413  1.00270129 33905"}}, "geometry": {"type": "Point", "coordinates": [84.78577947040714, 0.019333299894645894]}}]}